start=new Date('2021-08-23T00:00:00.000Z').valueOf();
sats=[{"REF_FRAME":"TEME","MEAN_MOTION_DDOT":"0.0000000000000","SITE":"AFETR","EPOCH":"2021-08-22T15:20:49.798464","FILE":"3101563","ECCENTRICITY":"0.00010120","LAUNCH_DATE":"2020-10-24","CLASSIFICATION_TYPE":"U","OBJECT_NAME":"STARLINK-1872","NORAD_CAT_ID":"46742","ARG_OF_PERICENTER":"42.4940","APOAPSIS":"547.947","TIME_SYSTEM":"UTC","OBJECT_TYPE":"PAYLOAD","PERIOD":"95.593","MEAN_ELEMENT_THEORY":"SGP4","RA_OF_ASC_NODE":"213.8625","SEMIMAJOR_AXIS":"6925.381","MEAN_MOTION":"15.06389483","TLE_LINE1":"1 46742U 20074D   21234.63946526  .00000480  00000-0  51124-4 0  9998","CENTER_NAME":"EARTH","PERIAPSIS":"546.545","BSTAR":"0.00005112400000","INCLINATION":"53.0542","ELEMENT_SET_NO":"999","RCS_SIZE":"LARGE","TLE_LINE2":"2 46742  53.0542 213.8625 0001012  42.4940 317.6127 15.06389483 46462","MEAN_MOTION_DOT":"0.00000480","OBJECT_ID":"2020-074D","GP_ID":"183271656","DECAY_DATE":null,"COUNTRY_CODE":"US","EPHEMERIS_TYPE":"0","MEAN_ANOMALY":"317.6127","REV_AT_EPOCH":"4646"},{"OBJECT_ID":"2020-074E","GP_ID":"183271906","RCS_SIZE":"LARGE","ELEMENT_SET_NO":"999","TLE_LINE2":"2 46743  53.0531 213.7810 0005498 192.4738 167.6116 15.06389980 46473","MEAN_MOTION_DOT":"0.00000397","COUNTRY_CODE":"US","EPHEMERIS_TYPE":"0","MEAN_ANOMALY":"167.6116","REV_AT_EPOCH":"4647","DECAY_DATE":null,"TLE_LINE1":"1 46743U 20074E   21234.66158218  .00000397  00000-0  45684-4 0  9996","SEMIMAJOR_AXIS":"6925.379","MEAN_MOTION":"15.06389980","PERIAPSIS":"543.437","INCLINATION":"53.0531","BSTAR":"0.00004568400000","CENTER_NAME":"EARTH","APOAPSIS":"551.052","OBJECT_TYPE":"PAYLOAD","TIME_SYSTEM":"UTC","NORAD_CAT_ID":"46743","OBJECT_NAME":"STARLINK-1892","ARG_OF_PERICENTER":"192.4738","PERIOD":"95.593","MEAN_ELEMENT_THEORY":"SGP4","RA_OF_ASC_NODE":"213.7810","FILE":"3101563","REF_FRAME":"TEME","MEAN_MOTION_DDOT":"0.0000000000000","SITE":"AFETR","EPOCH":"2021-08-22T15:52:40.700352","ECCENTRICITY":"0.00054980","LAUNCH_DATE":"2020-10-24","CLASSIFICATION_TYPE":"U"},{"PERIAPSIS":"546.466","BSTAR":"-0.00002759600000","INCLINATION":"53.0526","CENTER_NAME":"EARTH","TLE_LINE1":"1 46744U 20074F   21234.67998801 -.00000692  00000-0 -27596-4 0  9990","MEAN_MOTION":"15.06392533","SEMIMAJOR_AXIS":"6925.371","MEAN_ANOMALY":"297.9188","REV_AT_EPOCH":"4647","COUNTRY_CODE":"US","EPHEMERIS_TYPE":"0","DECAY_DATE":null,"OBJECT_ID":"2020-074F","GP_ID":"183272157","MEAN_MOTION_DOT":"-0.00000692","TLE_LINE2":"2 46744  53.0526 213.6999 0001113  62.1913 297.9188 15.06392533 46477","ELEMENT_SET_NO":"999","RCS_SIZE":"LARGE","CLASSIFICATION_TYPE":"U","ECCENTRICITY":"0.00011130","LAUNCH_DATE":"2020-10-24","FILE":"3101563","SITE":"AFETR","EPOCH":"2021-08-22T16:19:10.964064","REF_FRAME":"TEME","MEAN_MOTION_DDOT":"0.0000000000000","RA_OF_ASC_NODE":"213.6999","PERIOD":"95.593","MEAN_ELEMENT_THEORY":"SGP4","OBJECT_TYPE":"PAYLOAD","TIME_SYSTEM":"UTC","APOAPSIS":"548.007","ARG_OF_PERICENTER":"62.1913","OBJECT_NAME":"STARLINK-1894","NORAD_CAT_ID":"46744"},{"PERIAPSIS":"546.347","BSTAR":"-0.00004496300000","INCLINATION":"53.0542","CENTER_NAME":"EARTH","TLE_LINE1":"1 46745U 20074G   21234.63574953 -.00000951  00000-0 -44963-4 0  9990","MEAN_MOTION":"15.06410791","SEMIMAJOR_AXIS":"6925.315","REV_AT_EPOCH":"4646","MEAN_ANOMALY":"323.2685","EPHEMERIS_TYPE":"0","COUNTRY_CODE":"US","DECAY_DATE":null,"GP_ID":"183272408","OBJECT_ID":"2020-074G","TLE_LINE2":"2 46745  53.0542 213.8776 0001204  36.8387 323.2685 15.06410791 46466","MEAN_MOTION_DOT":"-0.00000951","RCS_SIZE":"LARGE","ELEMENT_SET_NO":"999","CLASSIFICATION_TYPE":"U","LAUNCH_DATE":"2020-10-24","ECCENTRICITY":"0.00012040","FILE":"3101563","EPOCH":"2021-08-22T15:15:28.759392","SITE":"AFETR","MEAN_MOTION_DDOT":"0.0000000000000","REF_FRAME":"TEME","RA_OF_ASC_NODE":"213.8776","MEAN_ELEMENT_THEORY":"SGP4","PERIOD":"95.591","TIME_SYSTEM":"UTC","OBJECT_TYPE":"PAYLOAD","APOAPSIS":"548.014","ARG_OF_PERICENTER":"36.8387","NORAD_CAT_ID":"46745","OBJECT_NAME":"STARLINK-1898"},{"ECCENTRICITY":"0.00009150","LAUNCH_DATE":"2020-10-24","CLASSIFICATION_TYPE":"U","MEAN_MOTION_DDOT":"0.0000000000000","REF_FRAME":"TEME","SITE":"AFETR","EPOCH":"2021-08-22T08:42:42.844032","FILE":"3101345","PERIOD":"95.592","MEAN_ELEMENT_THEORY":"SGP4","RA_OF_ASC_NODE":"215.1055","OBJECT_NAME":"STARLINK-1905","NORAD_CAT_ID":"46746","ARG_OF_PERICENTER":"32.0878","APOAPSIS":"547.854","OBJECT_TYPE":"PAYLOAD","TIME_SYSTEM":"UTC","CENTER_NAME":"EARTH","PERIAPSIS":"546.587","BSTAR":"-0.00005298400000","INCLINATION":"53.0543","SEMIMAJOR_AXIS":"6925.356","MEAN_MOTION":"15.06397668","TLE_LINE1":"1 46746U 20074H   21234.36299588 -.00001070  00000-0 -52984-4 0  9994","DECAY_DATE":null,"EPHEMERIS_TYPE":"0","COUNTRY_CODE":"US","MEAN_ANOMALY":"328.0167","REV_AT_EPOCH":"4642","RCS_SIZE":"LARGE","ELEMENT_SET_NO":"999","TLE_LINE2":"2 46746  53.0543 215.1055 0000915  32.0878 328.0167 15.06397668 46425","MEAN_MOTION_DOT":"-0.00001070","OBJECT_ID":"2020-074H","GP_ID":"183245017"},{"PERIOD":"95.592","MEAN_ELEMENT_THEORY":"SGP4","RA_OF_ASC_NODE":"212.5149","APOAPSIS":"547.969","OBJECT_TYPE":"PAYLOAD","TIME_SYSTEM":"UTC","NORAD_CAT_ID":"46747","OBJECT_NAME":"STARLINK-1908","ARG_OF_PERICENTER":"55.4830","ECCENTRICITY":"0.00010800","LAUNCH_DATE":"2020-10-24","CLASSIFICATION_TYPE":"U","FILE":"3101563","REF_FRAME":"TEME","MEAN_MOTION_DDOT":"0.0000000000000","SITE":"AFETR","EPOCH":"2021-08-22T22:36:02.347776","EPHEMERIS_TYPE":"0","COUNTRY_CODE":"US","MEAN_ANOMALY":"304.6261","REV_AT_EPOCH":"4651","DECAY_DATE":null,"OBJECT_ID":"2020-074J","GP_ID":"183271406","ELEMENT_SET_NO":"999","RCS_SIZE":"LARGE","MEAN_MOTION_DOT":"0.00000295","TLE_LINE2":"2 46747  53.0531 212.5149 0001080  55.4830 304.6261 15.06397702 46513","PERIAPSIS":"546.473","BSTAR":"0.00003870500000","INCLINATION":"53.0531","CENTER_NAME":"EARTH","TLE_LINE1":"1 46747U 20074J   21234.94169384  .00000295  00000-0  38705-4 0  9990","SEMIMAJOR_AXIS":"6925.356","MEAN_MOTION":"15.06397702"},{"TIME_SYSTEM":"UTC","OBJECT_TYPE":"PAYLOAD","APOAPSIS":"548.756","ARG_OF_PERICENTER":"175.5802","OBJECT_NAME":"STARLINK-1910","NORAD_CAT_ID":"46748","RA_OF_ASC_NODE":"213.6780","PERIOD":"95.591","MEAN_ELEMENT_THEORY":"SGP4","FILE":"3101563","SITE":"AFETR","EPOCH":"2021-08-22T16:24:29.771424","MEAN_MOTION_DDOT":"0.0000000000000","REF_FRAME":"TEME","CLASSIFICATION_TYPE":"U","ECCENTRICITY":"0.00022770","LAUNCH_DATE":"2020-10-24","OBJECT_ID":"2020-074K","GP_ID":"183272658","MEAN_MOTION_DOT":"0.00002138","TLE_LINE2":"2 46748  53.0540 213.6780 0002277 175.5802 184.5208 15.06411233 46476","ELEMENT_SET_NO":"999","RCS_SIZE":"LARGE","MEAN_ANOMALY":"184.5208","REV_AT_EPOCH":"4647","EPHEMERIS_TYPE":"0","COUNTRY_CODE":"US","DECAY_DATE":null,"TLE_LINE1":"1 46748U 20074K   21234.68367791  .00002138  00000-0  16233-3 0  9993","MEAN_MOTION":"15.06411233","SEMIMAJOR_AXIS":"6925.314","BSTAR":"0.00016233000000","PERIAPSIS":"545.602","INCLINATION":"53.0540","CENTER_NAME":"EARTH"},{"PERIOD":"95.592","MEAN_ELEMENT_THEORY":"SGP4","RA_OF_ASC_NODE":"214.8301","NORAD_CAT_ID":"46749","OBJECT_NAME":"STARLINK-1911","ARG_OF_PERICENTER":"56.7929","APOAPSIS":"548.096","OBJECT_TYPE":"PAYLOAD","TIME_SYSTEM":"UTC","ECCENTRICITY":"0.00012540","LAUNCH_DATE":"2020-10-24","CLASSIFICATION_TYPE":"U","MEAN_MOTION_DDOT":"0.0000000000000","REF_FRAME":"TEME","SITE":"AFETR","EPOCH":"2021-08-22T10:12:58.260384","FILE":"3101457","DECAY_DATE":null,"COUNTRY_CODE":"US","EPHEMERIS_TYPE":"0","MEAN_ANOMALY":"303.3180","REV_AT_EPOCH":"4645","ELEMENT_SET_NO":"999","RCS_SIZE":"LARGE","TLE_LINE2":"2 46749  53.0543 214.8301 0001254  56.7929 303.3180 15.06395295 46453","MEAN_MOTION_DOT":"0.00000760","OBJECT_ID":"2020-074L","GP_ID":"183248952","CENTER_NAME":"EARTH","INCLINATION":"53.0543","PERIAPSIS":"546.360","BSTAR":"0.00006994100000","SEMIMAJOR_AXIS":"6925.363","MEAN_MOTION":"15.06395295","TLE_LINE1":"1 46749U 20074L   21234.42567431  .00000760  00000-0  69941-4 0  9993"},{"MEAN_MOTION":"15.06386564","SEMIMAJOR_AXIS":"6925.390","TLE_LINE1":"1 46751U 20074N   21234.42199089  .00000618  00000-0  60369-4 0  9993","CENTER_NAME":"EARTH","PERIAPSIS":"546.589","BSTAR":"0.00006036900000","INCLINATION":"53.0535","MEAN_MOTION_DOT":"0.00000618","TLE_LINE2":"2 46751  53.0535 214.8593 0000961  40.7731 319.3330 15.06386564 46439","RCS_SIZE":"LARGE","ELEMENT_SET_NO":"999","OBJECT_ID":"2020-074N","GP_ID":"183245517","DECAY_DATE":null,"MEAN_ANOMALY":"319.3330","REV_AT_EPOCH":"4643","COUNTRY_CODE":"US","EPHEMERIS_TYPE":"0","SITE":"AFETR","EPOCH":"2021-08-22T10:07:40.012896","MEAN_MOTION_DDOT":"0.0000000000000","REF_FRAME":"TEME","FILE":"3101345","CLASSIFICATION_TYPE":"U","ECCENTRICITY":"0.00009610","LAUNCH_DATE":"2020-10-24","ARG_OF_PERICENTER":"40.7731","OBJECT_NAME":"STARLINK-1920","NORAD_CAT_ID":"46751","OBJECT_TYPE":"PAYLOAD","TIME_SYSTEM":"UTC","APOAPSIS":"547.920","RA_OF_ASC_NODE":"214.8593","PERIOD":"95.593","MEAN_ELEMENT_THEORY":"SGP4"},{"RA_OF_ASC_NODE":"214.8098","MEAN_ELEMENT_THEORY":"SGP4","PERIOD":"95.592","ARG_OF_PERICENTER":"157.2166","OBJECT_NAME":"STARLINK-1921","NORAD_CAT_ID":"46752","OBJECT_TYPE":"PAYLOAD","TIME_SYSTEM":"UTC","APOAPSIS":"548.856","CLASSIFICATION_TYPE":"U","LAUNCH_DATE":"2020-10-24","ECCENTRICITY":"0.00023470","EPOCH":"2021-08-22T10:23:36.417696","SITE":"AFETR","REF_FRAME":"TEME","MEAN_MOTION_DDOT":"0.0000000000000","FILE":"3101345","DECAY_DATE":null,"REV_AT_EPOCH":"4643","MEAN_ANOMALY":"202.8927","COUNTRY_CODE":"US","EPHEMERIS_TYPE":"0","TLE_LINE2":"2 46752  53.0548 214.8098 0002347 157.2166 202.8927 15.06394460 46432","MEAN_MOTION_DOT":"0.00000591","RCS_SIZE":"LARGE","ELEMENT_SET_NO":"999","GP_ID":"183243779","OBJECT_ID":"2020-074P","CENTER_NAME":"EARTH","BSTAR":"0.00005859300000","PERIAPSIS":"545.605","INCLINATION":"53.0548","MEAN_MOTION":"15.06394460","SEMIMAJOR_AXIS":"6925.366","TLE_LINE1":"1 46752U 20074P   21234.43306039  .00000591  00000-0  58593-4 0  9996"}];
